{
  "norad_id": 62447,
  "name": "STARLINK-32730",
  "history": [
    {
      "epoch": "2026-03-28T17:05:44.347776Z",
      "apogee_km": 475.6812554524731,
      "perigee_km": 474.6614831671204,
      "latitude_deg": 1.124963437071672e-05,
      "longitude_deg": 164.17929664261862,
      "height_km": 475.9345724614653,
      "semi_major_axis_km": 6853.308369309797,
      "eccentricity": 7.44e-05,
      "inclination_deg": 53.1579,
      "raan_deg": 246.7429,
      "arg_perigee_deg": 74.6016,
      "mean_anomaly_deg": 285.5067,
      "mean_motion_rev_day": 15.30214636
    },
    {
      "epoch": "2026-03-29T21:18:41.852160Z",
      "apogee_km": 475.87180985890063,
      "perigee_km": 474.492922002476,
      "latitude_deg": 1.8226158874560996e-06,
      "longitude_deg": 94.31829950419292,
      "height_km": 476.0894885123876,
      "semi_major_axis_km": 6853.319365930688,
      "eccentricity": 0.0001006,
      "inclination_deg": 53.1585,
      "raan_deg": 241.2803,
      "arg_perigee_deg": 90.7353,
      "mean_anomaly_deg": 269.3763,
      "mean_motion_rev_day": 15.30210953
    },
    {
      "epoch": "2026-03-29T21:18:41.853024Z",
      "apogee_km": 475.87208399167594,
      "perigee_km": 474.4926478697007,
      "latitude_deg": -1.8680587933382792e-06,
      "longitude_deg": 94.31829314447889,
      "height_km": 476.08949203033006,
      "semi_major_axis_km": 6853.319365930688,
      "eccentricity": 0.00010064,
      "inclination_deg": 53.1585,
      "raan_deg": 241.2803,
      "arg_perigee_deg": 90.7353,
      "mean_anomaly_deg": 269.3763,
      "mean_motion_rev_day": 15.30210953
    }
  ]
}